IRIDIUM 63              
1 25286U 98021B   25362.50642759  .00000539  00000+0  17613-3 0  9996
2 25286  86.3982   0.5968 0002258  83.9511 276.1944 14.36748903451742
IRIDIUM 69              
1 25319U 98026A   25362.12831083  .00000540  00000+0  16109-3 0  9997
2 25319  86.3970  13.4312 0004582  97.4917 262.6804 14.41230899450991
IRIDIUM 71              
1 25320U 98026B   25362.39173016  .00000409  00000+0  12035-3 0  9991
2 25320  86.3971   7.9912 0003393 127.6749 232.4759 14.41327882451563
IRIDIUM 73              
1 25344U 98032C   25362.42251468  .00000919  00000+0  22243-3 0  9994
2 25344  86.4419 324.3235 0002961  80.3986 279.7554 14.52012263458749
IRIDIUM 82              
1 25467U 98051A   25362.49312821  .00055969  00000+0  99915-3 0  9994
2 25467  86.3604  13.1686 0056631 271.4273  88.0498 15.48018140453837
